NORAD_CAT_ID,OBJECT_NAME,OBJECT_TYPE,EPOCH,MEAN_MOTION,ECCENTRICITY,INCLINATION,RA_OF_ASC_NODE,ARG_OF_PERICENTER,MEAN_ANOMALY,BSTAR,MEAN_MOTION_DOT,MEAN_MOTION_DDOT,TLE_LINE0,TLE_LINE1,TLE_LINE2,SEMIMAJOR_AXIS,PERIOD,APOGEE,PERIGEE,DECAYED
52451.0,STARLINK-3870,PAYLOAD,2022-06-30 14:00:01,15.15939976,0.0001496,53.2177,1.1158,62.4005,180.45,-0.039903,-0.00721251,0.0,0 STARLINK-3870,1 52451U 22049A   22181.58334491 -.00721251  00000-0 -39903-1 0  9990,2 52451  53.2177   1.1158 0001496  62.4005 180.4500 15.15939976  1304,6896.263000000001,94.991,519.16,517.097,0.0
52451.0,STARLINK-3870,PAYLOAD,2022-06-30 22:00:00,15.15428249,0.0001476,53.2175,359.6047,62.5165,200.151,-0.040296,-0.00718014,0.0,0 STARLINK-3870,1 52451U 22049A   22181.91667824 -.00718014  00000-0 -40296-1 0  9996,2 52451  53.2175 359.6047 0001476  62.5165 200.1510 15.15428249  1303,6897.816,95.023,520.6990000000002,518.663,0.0
52451.0,STARLINK-3870,PAYLOAD,2022-07-01 14:00:01,15.14410374,0.0001426,53.2176,356.5818,62.4639,238.0001,-0.041706,-0.0072166,0.0,0 STARLINK-3870,1 52451U 22049A   22182.58334491 -.00721660  00000-0 -41706-1 0  9999,2 52451  53.2176 356.5818 0001426  62.4639 238.0001 15.14410374  1300,6900.906,95.087,523.755,521.7869999999998,0.0
52451.0,STARLINK-3870,PAYLOAD,2022-07-01 22:00:00,15.13898596,0.000131,53.2175,355.0742,73.5007,244.942,-0.042104,-0.00718291,0.0,0 STARLINK-3870,1 52451U 22049A   22182.91667824 -.00718291  00000-0 -42104-1 0  9994,2 52451  53.2175 355.0742 0001310  73.5007 244.9420 15.13898596  8957,6902.4609999999975,95.119,525.231,523.422,0.0
52451.0,STARLINK-3870,PAYLOAD,2022-07-02 14:00:01,15.12880968,0.0001440999999999,53.2177,352.0585,56.3492,296.2131,-0.043607,-0.00722583,0.0,0 STARLINK-3870,1 52451U 22049A   22183.58334491 -.00722583  00000-0 -43607-1 0  9997,2 52451  53.2177 352.0585 0001441  56.3492 296.2131 15.12880968  1307,6905.556,95.183,528.4159999999998,526.4259999999998,0.0
52451.0,STARLINK-3870,PAYLOAD,2022-07-02 22:00:00,15.12368814,0.0001272,53.2174,350.5544,72.3016,296.4013,-0.043973,-0.00718516,0.0,0 STARLINK-3870,1 52451U 22049A   22183.91667824 -.00718516  00000-0 -43973-1 0  9990,2 52451  53.2174 350.5544 0001272  72.3016 296.4013 15.12368814  1306,6907.115,95.215,529.859,528.102,0.0
52451.0,STARLINK-3870,PAYLOAD,2022-07-03 00:00:00,15.1224247,0.0001348,53.2172,350.1778,69.1937,33.4484,-0.04424,-0.00720208,0.0,0 STARLINK-3870,1 52451U 22049A   22184.00001157 -.00720208  00000-0 -44240-1 0  9991,2 52451  53.2172 350.1778 0001348  69.1937  33.4484 15.12242470  9116,6907.5,95.223,530.2959999999998,528.434,0.0
52451.0,STARLINK-3870,PAYLOAD,2022-07-03 14:00:01,15.11351236,0.0001472,53.2176,347.546,54.8507,344.295,-0.045551,-0.00723099,0.0,0 STARLINK-3870,1 52451U 22049A   22184.58334491 -.00723099  00000-0 -45551-1 0  9991,2 52451  53.2176 347.5460 0001472  54.8507 344.2950 15.11351236  1304,6910.215,95.279,533.097,531.063,0.0
52451.0,STARLINK-3870,PAYLOAD,2022-07-03 22:00:00,15.10838701,0.0001419999999999,53.2174,346.0452,57.4038,356.0443,-0.045873,-0.00718235,0.0,0 STARLINK-3870,1 52451U 22049A   22184.91667824 -.00718235  00000-0 -45873-1 0  9990,2 52451  53.2174 346.0452 0001420  57.4038 356.0443 15.10838701  1302,6911.778,95.311,534.624,532.661,0.0
52451.0,STARLINK-3870,PAYLOAD,2022-07-04 06:00:00,15.10329191,0.0001348,53.2174,344.5427,63.4733,3.6655,-0.046651,-0.00720012,0.0,0 STARLINK-3870,1 52451U 22049A   22185.25001157 -.00720012  00000-0 -46651-1 0  9990,2 52451  53.2174 344.5427 0001348  63.4733   3.6655 15.10329191  9301,6913.331999999999,95.343,536.129,534.265,0.0
52451.0,STARLINK-3870,PAYLOAD,2022-07-04 14:00:01,15.09822537,0.0001537,53.2175,343.0440000000001,52.5611,27.6526,-0.047751,-0.00726276,0.0,0 STARLINK-3870,1 52451U 22049A   22185.58334491 -.00726276  00000-0 -47751-1 0  9996,2 52451  53.2175 343.0440 0001537  52.5611  27.6526 15.09822537  1300,6914.879,95.375,537.807,535.681,0.0
52451.0,STARLINK-3870,PAYLOAD,2022-07-04 22:00:00,15.09224953,0.0001314,53.2173,341.5468,60.6524,32.0374,-0.027209,-0.00413458,0.0,0 STARLINK-3870,1 52451U 22049A   22185.91667824 -.00413458  00000-0 -27209-1 0  9993,2 52451  53.2173 341.5468 0001314  60.6524  32.0374 15.09224953  1306,6916.704000000002,95.413,539.4780000000002,537.66,0.0
52451.0,STARLINK-3870,PAYLOAD,2022-07-05 08:00:01,15.08837678,0.0001538,53.2172,339.6738,56.3322,141.1571,-0.00017734,-3.109e-05,0.0,0 STARLINK-3870,1 52451U 22049A   22186.33334491 -.00003109  00000-0 -17734-3 0  9993,2 52451  53.2172 339.6738 0001538  56.3322 141.1571 15.08837678  9479,6917.887,95.438,540.816,538.689,0.0
52451.0,STARLINK-3870,PAYLOAD,2022-07-05 14:00:01,15.08837132,0.0001549,53.2174,338.5525,58.2144,57.9684,-5.4193e-05,-1.15e-05,0.0,0 STARLINK-3870,1 52451U 22049A   22186.58334491 -.00001150  00000-0 -54193-4 0  9995,2 52451  53.2174 338.5525 0001549  58.2144  57.9684 15.08837132  1306,6917.889,95.438,540.826,538.683,0.0
52451.0,STARLINK-3870,PAYLOAD,2022-07-05 22:00:00,15.08869152,0.0001676999999999,53.2133,337.0643,56.3611,71.4452,-0.0017379,-0.00027863,0.0,0 STARLINK-3870,1 52451U 22049A   22186.91667824 -.00027863  00000-0 -17379-2 0  9993,2 52451  53.2133 337.0643 0001677  56.3611  71.4452 15.08869152  9552,6917.791,95.436,540.816,538.496,0.0
52451.0,STARLINK-3870,PAYLOAD,2022-07-06 14:00:01,15.08837905,0.000149,53.2137,334.0704,59.8354,91.1742,-0.0015569,-0.00024979,0.0,0 STARLINK-3870,1 52451U 22049A   22187.58334491 -.00024979  00000-0 -15569-2 0  9992,2 52451  53.2137 334.0704 0001490  59.8354  91.1742 15.08837905  1303,6917.887,95.438,540.783,538.721,0.0
52451.0,STARLINK-3870,PAYLOAD,2022-07-06 19:41:35,15.0911873,0.0001419999999999,53.2144,333.0044,52.7028,307.4094,-0.0034946,-0.00055897,0.0,0 STARLINK-3870,1 52451U 22049A   22187.82054705 -.00055897  00000-0 -34946-2 0  9999,2 52451  53.2144 333.0044 0001420  52.7028 307.4094 15.09118730  9692,6917.029,95.42,539.876,537.911,0.0
52451.0,STARLINK-3870,PAYLOAD,2022-07-07 06:00:02,15.08814635,0.0001377,53.2136,331.0764,61.2929,112.9548,0.0027018,0.00042943,0.0,0 STARLINK-3870,1 52451U 22049A   22188.25002315  .00042943  00000-0  27018-2 0  9995,2 52451  53.2136 331.0764 0001377  61.2929 112.9548 15.08814635  9763,6917.958000000001,95.439,540.776,538.87,0.0
52451.0,STARLINK-3870,PAYLOAD,2022-07-07 13:10:49,15.08849801,0.0001346,53.2144,329.733,64.256,295.857,-0.00017786,-3.118e-05,0.0,0 STARLINK-3870,1 52451U 22049A   22188.54918397 -.00003118  00000-0 -17786-3 0  9998,2 52451  53.2144 329.7330 0001346  64.2560 295.8570 15.08849801  9641,6917.85,95.437,540.6469999999998,538.784,0.0
52451.0,STARLINK-3870,PAYLOAD,2022-07-07 22:00:00,15.08853383,0.0001561,53.2133,328.0851,54.7821,142.5817,-0.0016276,-0.00026107,0.0,0 STARLINK-3870,1 52451U 22049A   22188.91667824 -.00026107  00000-0 -16276-2 0  9990,2 52451  53.2133 328.0851 0001561  54.7821 142.5817 15.08853383  9868,6917.839,95.437,540.784,538.625,0.0
52451.0,STARLINK-3870,PAYLOAD,2022-07-08 14:00:01,15.08867103,0.0001547,53.2133,325.0916,60.0801,160.51,-0.00022796,-3.917e-05,0.0,0 STARLINK-3870,1 52451U 22049A   22189.58334491 -.00003917  00000-0 -22796-3 0  9994,2 52451  53.2133 325.0916 0001547  60.0801 160.5100 15.08867103  9960,6917.7980000000025,95.436,540.7330000000002,538.592,0.0
52451.0,STARLINK-3870,PAYLOAD,2022-07-08 22:00:01,15.08880915,0.0001606,53.2128,323.5952,56.8466,175.4179,-0.0020519,-0.00032832,0.0,0 STARLINK-3870,1 52451U 22049A   22189.91668981 -.00032832  00000-0 -20519-2 0  9993,2 52451  53.2128 323.5952 0001606  56.8466 175.4179 15.08880915  1300,6917.755,95.435,540.731,538.509,0.0
52451.0,STARLINK-3870,PAYLOAD,2022-07-09 06:00:00,15.08832102,0.0001506,53.2128,322.097,66.2951,177.537,-0.00067242,-0.00010971,0.0,0 STARLINK-3870,1 52451U 22049A   22190.25001157 -.00010971  00000-0 -67242-3 0  9993,2 52451  53.2128 322.0970 0001506  66.2951 177.5370 15.08832102 10061,6917.905,95.438,540.811,538.7280000000002,0.0
52451.0,STARLINK-3870,PAYLOAD,2022-07-09 14:00:01,15.08810045,0.0001641999999999,53.2128,320.6020000000001,63.117,192.2921,-0.0027901,-0.00044383,0.0,0 STARLINK-3870,1 52451U 22049A   22190.58334491 -.00044383  00000-0 -27901-2 0  9990,2 52451  53.2128 320.6020 0001642  63.1170 192.2921 15.08810045  1306,6917.972,95.439,540.9730000000002,538.701,0.0
52451.0,STARLINK-3870,PAYLOAD,2022-07-09 20:00:01,15.08764028,0.0001706,53.2125,319.48,59.8829,114.1845,0.0028176,0.00044746,0.0,0 STARLINK-3870,1 52451U 22049A   22190.83334491  .00044746  00000-0  28176-2 0  9994,2 52451  53.2125 319.4800 0001706  59.8829 114.1845 15.08764028  1306,6918.113,95.442,541.158,538.797,0.0
52451.0,STARLINK-3870,PAYLOAD,2022-07-10 14:00:01,15.08827517,0.0001585999999999,53.2125,316.1126,62.3989,227.6178,-0.00023445,-4.016e-05,0.0,0 STARLINK-3870,1 52451U 22049A   22191.58334491 -.00004016  00000-0 -23445-3 0  9990,2 52451  53.2125 316.1126 0001586  62.3989 227.6178 15.08827517 10260,6917.919,95.438,540.881,538.686,0.0
52451.0,STARLINK-3870,PAYLOAD,2022-07-10 22:00:00,15.08843689,0.0001571999999999,53.2122,314.616,58.0504,243.5406,-0.00081744,-0.00013275,0.0,0 STARLINK-3870,1 52451U 22049A   22191.91667824 -.00013275  00000-0 -81744-3 0  9999,2 52451  53.2122 314.6160 0001572  58.0504 243.5406 15.08843689  1302,6917.869000000002,95.437,540.822,538.6469999999998,0.0
52451.0,STARLINK-3870,PAYLOAD,2022-07-11 14:00:01,15.08854519,0.0001622,53.2125,311.623,60.3991,264.3876,-0.00063716,-0.00010418,0.0,0 STARLINK-3870,1 52451U 22049A   22192.58334491 -.00010418  00000-0 -63716-3 0  9999,2 52451  53.2125 311.6230 0001622  60.3991 264.3876 15.08854519 10410,6917.8359999999975,95.437,540.823,538.5790000000002,0.0
52451.0,STARLINK-3870,PAYLOAD,2022-07-11 22:00:00,15.08882354,0.0001554,53.2124,310.1262,55.8142,280.5745,-0.003704,-0.00058824,0.0,0 STARLINK-3870,1 52451U 22049A   22192.91667824 -.00058824  00000-0 -37040-2 0  9998,2 52451  53.2124 310.1262 0001554  55.8142 280.5745 15.08882354  1300,6917.751,95.435,540.691,538.5409999999998,0.0
